OBJECT_NAME,OBJECT_ID,EPOCH,MEAN_MOTION,ECCENTRICITY,INCLINATION,RA_OF_ASC_NODE,ARG_OF_PERICENTER,MEAN_ANOMALY,EPHEMERIS_TYPE,CLASSIFICATION_TYPE,NORAD_CAT_ID,ELEMENT_SET_NO,REV_AT_EPOCH,BSTAR,MEAN_MOTION_DOT,MEAN_MOTION_DDOT
COSMOS 2251 DEB,1993-036AZV,2022-07-01T00:39:50.486688,14.83003808,.0104813,74.0108,286.0704,106.2715,255.0023,0,U,36422,999,69997,.41922E-3,.3717E-4,0
COSMOS 2251 DEB,1993-036AZW,2022-06-15T10:42:08.724384,14.14799690,.0278385,73.8213,84.9024,312.5921,45.2030,0,U,36423,999,6691,.25991E-2,.7264E-4,0
COSMOS 2251 DEB,1993-036AZX,2022-06-30T20:20:56.082048,14.32300802,.0105288,74.1828,341.6481,140.9399,219.9418,0,U,36424,999,65755,.70894E-3,.2011E-4,0
COSMOS 2251 DEB,1993-036BAD,2022-06-27T21:04:10.599744,14.23747409,.010356,74.0057,234.1635,316.1104,43.1848,0,U,36430,999,46547,.12573E-3,.277E-5,0
COSMOS 2251 DEB,1993-036BAJ,2022-06-30T22:48:02.347488,14.39746718,.0088351,73.8296,37.8190,235.3472,123.9331,0,U,36435,999,66520,.54915E-3,.1772E-4,0
COSMOS 2251 DEB,1993-036BAL,2022-06-30T16:06:25.436736,14.47340203,.0028555,73.9529,279.8230,67.5867,292.8312,0,U,36437,999,47691,.25837E-3,.923E-5,0
COSMOS 2251 DEB,1993-036BAN,2022-06-30T09:58:32.440800,13.42593802,.0444043,73.9702,239.8601,97.2473,267.9313,0,U,36439,999,41655,.6994E-4,.54E-6,0
COSMOS 2251 DEB,1993-036BAQ,2022-06-30T07:53:23.853984,14.83571394,.0163337,73.8435,37.4648,41.3450,319.9955,0,U,36441,999,68139,.12306E-3,.1239E-4,0
COSMOS 2251 DEB,1993-036BAR,2022-06-30T16:21:42.092352,14.48452210,.0038525,73.9908,331.4801,36.1051,324.2697,0,U,36442,999,67392,.40216E-3,.1494E-4,0
COSMOS 2251 DEB,1993-036BAW,2022-06-30T02:22:33.009024,15.10642717,.0063527,73.9305,329.3609,182.7480,177.3373,0,U,36447,999,41993,.71642E-3,.1241E-3,0
COSMOS 2251 DEB,1993-036BAX,2022-06-25T03:21:45.415872,14.45112899,.0042049,74.0877,102.7889,349.1085,10.9158,0,U,36448,999,47085,.10739E-2,.3772E-4,0
COSMOS 2251 DEB,1993-036BBA,2022-06-21T11:52:59.379744,14.09918182,.0209583,73.9408,77.5310,171.5459,3.0746,0,U,36451,999,66367,.5671E-3,.12E-4,0
COSMOS 2251 DEB,1993-036BBC,2022-06-30T04:43:02.054784,14.39500947,.0085389,73.9316,358.2639,177.9168,300.4429,0,U,36453,999,66245,.28351E-3,.895E-5,0
COSMOS 2251 DEB,1993-036BBD,2022-06-28T06:05:46.880448,14.90742048,.0015825,73.9936,8.5215,150.6979,209.5094,0,U,36454,999,53800,.13235E-2,.13021E-3,0
COSMOS 2251 DEB,1993-036BBJ,2022-06-29T10:17:58.340544,14.12348922,.0147546,74.0548,90.1481,129.9056,231.5164,0,U,36459,999,43024,.74271E-3,.1493E-4,0
COSMOS 2251 DEB,1993-036BBS,2022-06-29T17:53:59.153856,14.28885838,.0126663,73.8596,196.7566,19.7175,97.9615,0,U,36467,999,46798,.75988E-3,.2064E-4,0
COSMOS 2251 DEB,1993-036BBV,2022-06-30T08:07:38.365536,14.51664133,.0067116,73.8659,203.9945,286.2673,73.1112,0,U,36470,999,47568,.3123E-3,.1258E-4,0
COSMOS 2251 DEB,1993-036BCB,2022-06-30T13:05:50.836992,14.60584755,.0019077,74.0301,244.3623,263.3501,96.5493,0,U,36476,999,53049,.49524E-3,.2384E-4,0
COSMOS 2251 DEB,1993-036BCE,2022-06-30T11:35:50.358336,15.42315743,.0018182,74.0007,0.8094,46.5501,313.7217,0,U,36479,999,69720,.14063E-2,.61403E-3,0
IRIDIUM 33 DEB,1997-051VY,2022-06-29T05:49:45.063552,14.55895794,.0020807,86.3451,165.2718,143.7648,216.4974,0,U,36482,999,49656,.4399E-3,.1957E-4,0
IRIDIUM 33 DEB,1997-051VZ,2022-06-29T21:07:41.611008,14.37955947,.0008286,86.3841,228.2419,343.3634,16.7291,0,U,36483,999,46969,.17302E-3,.542E-5,0
IRIDIUM 33 DEB,1997-051WB,2022-06-30T15:11:31.096320,14.35198298,.0111492,86.4397,317.1378,27.7590,332.9495,0,U,36485,999,48320,.11234E-2,.3465E-4,0
IRIDIUM 33 DEB,1997-051WC,2022-06-30T04:56:46.492224,14.69336545,.0016245,86.3510,154.7489,12.8349,347.3276,0,U,36486,999,47844,.73015E-3,.4343E-4,0
IRIDIUM 33 DEB,1997-051WD,2022-06-29T03:55:35.154048,14.17545529,.0167422,86.3705,328.1104,41.0587,320.3060,0,U,36487,999,51464,.57914E-3,.1369E-4,0
IRIDIUM 33 DEB,1997-051WG,2022-06-30T18:54:59.304960,14.48472864,.0002921,86.3796,202.6954,69.2464,290.9052,0,U,36490,999,68098,.32629E-3,.1243E-4,0
IRIDIUM 33 DEB,1997-051WJ,2022-06-30T08:42:37.654848,14.63637051,.0007311,86.4241,213.7542,323.6322,36.4392,0,U,36492,999,68865,.61469E-3,.3217E-4,0
IRIDIUM 33 DEB,1997-051WK,2022-06-29T18:47:48.984576,14.45760100,.0013005,86.3665,201.2328,266.9704,93.0010,0,U,36493,999,56186,.31683E-3,.1143E-4,0
IRIDIUM 33 DEB,1997-051WP,2022-06-30T02:14:11.239296,14.38979868,.0071754,86.1618,109.0432,3.2863,58.3987,0,U,36497,999,47393,.53931E-3,.1733E-4,0
ECHOSTAR 14,2010-010A,2022-07-01T00:00:42.840576,1.00269126,.000231,0.0240,39.9728,68.5358,51.8336,0,U,36499,999,4502,0,.9E-7,0
BREEZE-M R/B,2010-010B,2022-06-29T01:06:17.630496,2.24380541,.643288,25.9756,157.4764,274.9194,19.6463,0,U,36500,999,10063,0,.17E-6,0
