COSMOS 2251 DEB         
1 36422U 93036AZV 22182.02766767  .00003717  00000+0  41922-3 0  9992
2 36422  74.0108 286.0704 0104813 106.2715 255.0023 14.83003808699977
COSMOS 2251 DEB         
1 36423U 93036AZW 22166.44593431  .00007264  00000+0  25991-2 0  9995
2 36423  73.8213  84.9024 0278385 312.5921  45.2030 14.14799690 66913
COSMOS 2251 DEB         
1 36424U 93036AZX 22181.84787132  .00002011  00000+0  70894-3 0  9998
2 36424  74.1828 341.6481 0105288 140.9399 219.9418 14.32300802657552
COSMOS 2251 DEB         
1 36430U 93036BAD 22178.87790046  .00000277  00000+0  12573-3 0  9994
2 36430  74.0057 234.1635 0103560 316.1104  43.1848 14.23747409465471
COSMOS 2251 DEB         
1 36435U 93036BAJ 22181.95002717  .00001772  00000+0  54915-3 0  9990
2 36435  73.8296  37.8190 0088351 235.3472 123.9331 14.39746718665208
COSMOS 2251 DEB         
1 36437U 93036BAL 22181.67112774  .00000923  00000+0  25837-3 0  9994
2 36437  73.9529 279.8230 0028555  67.5867 292.8312 14.47340203476917
COSMOS 2251 DEB         
1 36439U 93036BAN 22181.41565325  .00000054  00000+0  69940-4 0  9991
2 36439  73.9702 239.8601 0444043  97.2473 267.9313 13.42593802416554
COSMOS 2251 DEB         
1 36441U 93036BAQ 22181.32874831  .00001239  00000+0  12306-3 0  9998
2 36441  73.8435  37.4648 0163337  41.3450 319.9955 14.83571394681395
COSMOS 2251 DEB         
1 36442U 93036BAR 22181.68173718  .00001494  00000+0  40216-3 0  9998
2 36442  73.9908 331.4801 0038525  36.1051 324.2697 14.48452210673927
COSMOS 2251 DEB         
1 36447U 93036BAW 22181.09899316  .00012410  00000+0  71642-3 0  9994
2 36447  73.9305 329.3609 0063527 182.7480 177.3373 15.10642717419939
COSMOS 2251 DEB         
1 36448U 93036BAX 22176.14010898  .00003772  00000+0  10739-2 0  9995
2 36448  74.0877 102.7889 0042049 349.1085  10.9158 14.45112899470856
COSMOS 2251 DEB         
1 36451U 93036BBA 22172.49513171  .00001200  00000+0  56710-3 0  9999
2 36451  73.9408  77.5310 0209583 171.5459   3.0746 14.09918182663675
COSMOS 2251 DEB         
1 36453U 93036BBC 22181.19655156  .00000895  00000+0  28351-3 0  9997
2 36453  73.9316 358.2639 0085389 177.9168 300.4429 14.39500947662457
COSMOS 2251 DEB         
1 36454U 93036BBD 22179.25401482  .00013021  00000+0  13235-2 0  9992
2 36454  73.9936   8.5215 0015825 150.6979 209.5094 14.90742048538004
COSMOS 2251 DEB         
1 36459U 93036BBJ 22180.42914746  .00001493  00000+0  74271-3 0  9998
2 36459  74.0548  90.1481 0147546 129.9056 231.5164 14.12348922430240
COSMOS 2251 DEB         
1 36467U 93036BBS 22180.74582354  .00002064  00000+0  75988-3 0  9999
2 36467  73.8596 196.7566 0126663  19.7175  97.9615 14.28885838467986
COSMOS 2251 DEB         
1 36470U 93036BBV 22181.33863849  .00001258  00000+0  31230-3 0  9996
2 36470  73.8659 203.9945 0067116 286.2673  73.1112 14.51664133475686
COSMOS 2251 DEB         
1 36476U 93036BCB 22181.54572728  .00002384  00000+0  49524-3 0  9994
2 36476  74.0301 244.3623 0019077 263.3501  96.5493 14.60584755530493
COSMOS 2251 DEB         
1 36479U 93036BCE 22181.48322174  .00061403  00000+0  14063-2 0  9994
2 36479  74.0007   0.8094 0018182  46.5501 313.7217 15.42315743697204
IRIDIUM 33 DEB          
1 36482U 97051VY  22180.24288268  .00001957  00000+0  43990-3 0  9997
2 36482  86.3451 165.2718 0020807 143.7648 216.4974 14.55895794496562
IRIDIUM 33 DEB          
1 36483U 97051VZ  22180.88034272  .00000542  00000+0  17302-3 0  9999
2 36483  86.3841 228.2419 0008286 343.3634  16.7291 14.37955947469698
IRIDIUM 33 DEB          
1 36485U 97051WB  22181.63299880  .00003465  00000+0  11234-2 0  9997
2 36485  86.4397 317.1378 0111492  27.7590 332.9495 14.35198298483205
IRIDIUM 33 DEB          
1 36486U 97051WC  22181.20609366  .00004343  00000+0  73015-3 0  9997
2 36486  86.3510 154.7489 0016245  12.8349 347.3276 14.69336545478440
IRIDIUM 33 DEB          
1 36487U 97051WD  22180.16360132  .00001369  00000+0  57914-3 0  9992
2 36487  86.3705 328.1104 0167422  41.0587 320.3060 14.17545529514642
IRIDIUM 33 DEB          
1 36490U 97051WG  22181.78818640  .00001243  00000+0  32629-3 0  9994
2 36490  86.3796 202.6954 0002921  69.2464 290.9052 14.48472864680982
IRIDIUM 33 DEB          
1 36492U 97051WJ  22181.36293582  .00003217  00000+0  61469-3 0  9999
2 36492  86.4241 213.7542 0007311 323.6322  36.4392 14.63637051688654
IRIDIUM 33 DEB          
1 36493U 97051WK  22180.78320584  .00001143  00000+0  31683-3 0  9999
2 36493  86.3665 201.2328 0013005 266.9704  93.0010 14.45760100561869
IRIDIUM 33 DEB          
1 36497U 97051WP  22181.09318564  .00001733  00000+0  53931-3 0  9998
2 36497  86.1618 109.0432 0071754   3.2863  58.3987 14.38979868473935
ECHOSTAR 14             
1 36499U 10010A   22182.00049584  .00000009  00000+0  00000+0 0  9995
2 36499   0.0240  39.9728 0002310  68.5358  51.8336  1.00269126 45022
BREEZE-M R/B            
1 36500U 10010B   22180.04603739  .00000017  00000+0  00000+0 0  9997
2 36500  25.9756 157.4764 6432880 274.9194  19.6463  2.24380541100639
